IRIDIUM 144             
1 43249U 18030A   24258.54628789  .00000354  00000+0  11921-3 0  9992
2 43249  86.4026 198.1389 0002285  92.0161 268.1297 14.34216530338317
IRIDIUM 149             
1 43250U 18030B   24258.55262306  .00001474  00000+0  51903-3 0  9992
2 43250  86.4025 198.1101 0002400  87.6480 272.4991 14.34223266338338
IRIDIUM 157             
1 43251U 18030C   24258.57165654  .00001050  00000+0  36783-3 0  9992
2 43251  86.4030 198.1410 0002630  80.4202 279.7291 14.34222172338312
IRIDIUM 140             
1 43252U 18030D   24258.59068551  .00001249  00000+0  43891-3 0  9991
2 43252  86.4011 198.1487 0002486  80.7444 279.4033 14.34218497338378
IRIDIUM 145             
1 43253U 18030E   24258.57799585  .00000541  00000+0  18625-3 0  9999
2 43253  86.4029 198.1261 0002204  94.5439 265.6009 14.34218135338305
IRIDIUM 146             
1 43254U 18030F   24258.55896963  .00001584  00000+0  55836-3 0  9999
2 43254  86.4026 198.1485 0002205  89.7062 270.4386 14.34223630338319
IRIDIUM 148             
1 43255U 18030G   24258.38772408  .00000092  00000+0  25868-4 0  9994
2 43255  86.4029 198.2529 0002549  88.7879 271.3609 14.34216740338322
IRIDIUM 142             
1 43256U 18030H   24258.56531312  .00001294  00000+0  45487-3 0  9995
2 43256  86.4028 198.0903 0002702  92.2878 267.8627 14.34221215338318
