<?xml version="1.0" encoding="UTF-8"?>
<ndm xmlns:xsi="http://www.w3.org/2001/XMLSchema-instance" xsi:noNamespaceSchemaLocation="https://sanaregistry.org/r/ndmxml_unqualified/ndmxml-2.0.0-master-2.0.xsd">
<omm id="CCSDS_OMM_VERS" version="2.0">
<header><CREATION_DATE/><ORIGINATOR/></header><body><segment><metadata><OBJECT_NAME>IRIDIUM 144</OBJECT_NAME><OBJECT_ID>2018-030A</OBJECT_ID><CENTER_NAME>EARTH</CENTER_NAME><REF_FRAME>TEME</REF_FRAME><TIME_SYSTEM>UTC</TIME_SYSTEM><MEAN_ELEMENT_THEORY>SGP4</MEAN_ELEMENT_THEORY></metadata><data><meanElements><EPOCH>2024-09-14T13:06:39.273696</EPOCH><MEAN_MOTION>14.34216530</MEAN_MOTION><ECCENTRICITY>.0002285</ECCENTRICITY><INCLINATION>86.4026</INCLINATION><RA_OF_ASC_NODE>198.1389</RA_OF_ASC_NODE><ARG_OF_PERICENTER>92.0161</ARG_OF_PERICENTER><MEAN_ANOMALY>268.1297</MEAN_ANOMALY></meanElements><tleParameters><EPHEMERIS_TYPE>0</EPHEMERIS_TYPE><CLASSIFICATION_TYPE>U</CLASSIFICATION_TYPE><NORAD_CAT_ID>43249</NORAD_CAT_ID><ELEMENT_SET_NO>999</ELEMENT_SET_NO><REV_AT_EPOCH>33831</REV_AT_EPOCH><BSTAR>.11921E-3</BSTAR><MEAN_MOTION_DOT>.354E-5</MEAN_MOTION_DOT><MEAN_MOTION_DDOT>0</MEAN_MOTION_DDOT></tleParameters></data></segment></body></omm>
<omm id="CCSDS_OMM_VERS" version="2.0">
<header><CREATION_DATE/><ORIGINATOR/></header><body><segment><metadata><OBJECT_NAME>IRIDIUM 149</OBJECT_NAME><OBJECT_ID>2018-030B</OBJECT_ID><CENTER_NAME>EARTH</CENTER_NAME><REF_FRAME>TEME</REF_FRAME><TIME_SYSTEM>UTC</TIME_SYSTEM><MEAN_ELEMENT_THEORY>SGP4</MEAN_ELEMENT_THEORY></metadata><data><meanElements><EPOCH>2024-09-14T13:15:46.632384</EPOCH><MEAN_MOTION>14.34223266</MEAN_MOTION><ECCENTRICITY>.00024</ECCENTRICITY><INCLINATION>86.4025</INCLINATION><RA_OF_ASC_NODE>198.1101</RA_OF_ASC_NODE><ARG_OF_PERICENTER>87.6480</ARG_OF_PERICENTER><MEAN_ANOMALY>272.4991</MEAN_ANOMALY></meanElements><tleParameters><EPHEMERIS_TYPE>0</EPHEMERIS_TYPE><CLASSIFICATION_TYPE>U</CLASSIFICATION_TYPE><NORAD_CAT_ID>43250</NORAD_CAT_ID><ELEMENT_SET_NO>999</ELEMENT_SET_NO><REV_AT_EPOCH>33833</REV_AT_EPOCH><BSTAR>.51903E-3</BSTAR><MEAN_MOTION_DOT>.1474E-4</MEAN_MOTION_DOT><MEAN_MOTION_DDOT>0</MEAN_MOTION_DDOT></tleParameters></data></segment></body></omm>
<omm id="CCSDS_OMM_VERS" version="2.0">
<header><CREATION_DATE/><ORIGINATOR/></header><body><segment><metadata><OBJECT_NAME>IRIDIUM 157</OBJECT_NAME><OBJECT_ID>2018-030C</OBJECT_ID><CENTER_NAME>EARTH</CENTER_NAME><REF_FRAME>TEME</REF_FRAME><TIME_SYSTEM>UTC</TIME_SYSTEM><MEAN_ELEMENT_THEORY>SGP4</MEAN_ELEMENT_THEORY></metadata><data><meanElements><EPOCH>2024-09-14T13:43:11.125056</EPOCH><MEAN_MOTION>14.34222172</MEAN_MOTION><ECCENTRICITY>.000263</ECCENTRICITY><INCLINATION>86.4030</INCLINATION><RA_OF_ASC_NODE>198.1410</RA_OF_ASC_NODE><ARG_OF_PERICENTER>80.4202</ARG_OF_PERICENTER><MEAN_ANOMALY>279.7291</MEAN_ANOMALY></meanElements><tleParameters><EPHEMERIS_TYPE>0</EPHEMERIS_TYPE><CLASSIFICATION_TYPE>U</CLASSIFICATION_TYPE><NORAD_CAT_ID>43251</NORAD_CAT_ID><ELEMENT_SET_NO>999</ELEMENT_SET_NO><REV_AT_EPOCH>33831</REV_AT_EPOCH><BSTAR>.36783E-3</BSTAR><MEAN_MOTION_DOT>.105E-4</MEAN_MOTION_DOT><MEAN_MOTION_DDOT>0</MEAN_MOTION_DDOT></tleParameters></data></segment></body></omm>
<omm id="CCSDS_OMM_VERS" version="2.0">
<header><CREATION_DATE/><ORIGINATOR/></header><body><segment><metadata><OBJECT_NAME>IRIDIUM 140</OBJECT_NAME><OBJECT_ID>2018-030D</OBJECT_ID><CENTER_NAME>EARTH</CENTER_NAME><REF_FRAME>TEME</REF_FRAME><TIME_SYSTEM>UTC</TIME_SYSTEM><MEAN_ELEMENT_THEORY>SGP4</MEAN_ELEMENT_THEORY></metadata><data><meanElements><EPOCH>2024-09-14T14:10:35.228064</EPOCH><MEAN_MOTION>14.34218497</MEAN_MOTION><ECCENTRICITY>.0002486</ECCENTRICITY><INCLINATION>86.4011</INCLINATION><RA_OF_ASC_NODE>198.1487</RA_OF_ASC_NODE><ARG_OF_PERICENTER>80.7444</ARG_OF_PERICENTER><MEAN_ANOMALY>279.4033</MEAN_ANOMALY></meanElements><tleParameters><EPHEMERIS_TYPE>0</EPHEMERIS_TYPE><CLASSIFICATION_TYPE>U</CLASSIFICATION_TYPE><NORAD_CAT_ID>43252</NORAD_CAT_ID><ELEMENT_SET_NO>999</ELEMENT_SET_NO><REV_AT_EPOCH>33837</REV_AT_EPOCH><BSTAR>.43891E-3</BSTAR><MEAN_MOTION_DOT>.1249E-4</MEAN_MOTION_DOT><MEAN_MOTION_DDOT>0</MEAN_MOTION_DDOT></tleParameters></data></segment></body></omm>
<omm id="CCSDS_OMM_VERS" version="2.0">
<header><CREATION_DATE/><ORIGINATOR/></header><body><segment><metadata><OBJECT_NAME>IRIDIUM 145</OBJECT_NAME><OBJECT_ID>2018-030E</OBJECT_ID><CENTER_NAME>EARTH</CENTER_NAME><REF_FRAME>TEME</REF_FRAME><TIME_SYSTEM>UTC</TIME_SYSTEM><MEAN_ELEMENT_THEORY>SGP4</MEAN_ELEMENT_THEORY></metadata><data><meanElements><EPOCH>2024-09-14T13:52:18.841440</EPOCH><MEAN_MOTION>14.34218135</MEAN_MOTION><ECCENTRICITY>.0002204</ECCENTRICITY><INCLINATION>86.4029</INCLINATION><RA_OF_ASC_NODE>198.1261</RA_OF_ASC_NODE><ARG_OF_PERICENTER>94.5439</ARG_OF_PERICENTER><MEAN_ANOMALY>265.6009</MEAN_ANOMALY></meanElements><tleParameters><EPHEMERIS_TYPE>0</EPHEMERIS_TYPE><CLASSIFICATION_TYPE>U</CLASSIFICATION_TYPE><NORAD_CAT_ID>43253</NORAD_CAT_ID><ELEMENT_SET_NO>999</ELEMENT_SET_NO><REV_AT_EPOCH>33830</REV_AT_EPOCH><BSTAR>.18625E-3</BSTAR><MEAN_MOTION_DOT>.541E-5</MEAN_MOTION_DOT><MEAN_MOTION_DDOT>0</MEAN_MOTION_DDOT></tleParameters></data></segment></body></omm>
<omm id="CCSDS_OMM_VERS" version="2.0">
<header><CREATION_DATE/><ORIGINATOR/></header><body><segment><metadata><OBJECT_NAME>IRIDIUM 146</OBJECT_NAME><OBJECT_ID>2018-030F</OBJECT_ID><CENTER_NAME>EARTH</CENTER_NAME><REF_FRAME>TEME</REF_FRAME><TIME_SYSTEM>UTC</TIME_SYSTEM><MEAN_ELEMENT_THEORY>SGP4</MEAN_ELEMENT_THEORY></metadata><data><meanElements><EPOCH>2024-09-14T13:24:54.976032</EPOCH><MEAN_MOTION>14.34223630</MEAN_MOTION><ECCENTRICITY>.0002205</ECCENTRICITY><INCLINATION>86.4026</INCLINATION><RA_OF_ASC_NODE>198.1485</RA_OF_ASC_NODE><ARG_OF_PERICENTER>89.7062</ARG_OF_PERICENTER><MEAN_ANOMALY>270.4386</MEAN_ANOMALY></meanElements><tleParameters><EPHEMERIS_TYPE>0</EPHEMERIS_TYPE><CLASSIFICATION_TYPE>U</CLASSIFICATION_TYPE><NORAD_CAT_ID>43254</NORAD_CAT_ID><ELEMENT_SET_NO>999</ELEMENT_SET_NO><REV_AT_EPOCH>33831</REV_AT_EPOCH><BSTAR>.55836E-3</BSTAR><MEAN_MOTION_DOT>.1584E-4</MEAN_MOTION_DOT><MEAN_MOTION_DDOT>0</MEAN_MOTION_DDOT></tleParameters></data></segment></body></omm>
<omm id="CCSDS_OMM_VERS" version="2.0">
<header><CREATION_DATE/><ORIGINATOR/></header><body><segment><metadata><OBJECT_NAME>IRIDIUM 148</OBJECT_NAME><OBJECT_ID>2018-030G</OBJECT_ID><CENTER_NAME>EARTH</CENTER_NAME><REF_FRAME>TEME</REF_FRAME><TIME_SYSTEM>UTC</TIME_SYSTEM><MEAN_ELEMENT_THEORY>SGP4</MEAN_ELEMENT_THEORY></metadata><data><meanElements><EPOCH>2024-09-14T09:18:19.360512</EPOCH><MEAN_MOTION>14.34216740</MEAN_MOTION><ECCENTRICITY>.0002549</ECCENTRICITY><INCLINATION>86.4029</INCLINATION><RA_OF_ASC_NODE>198.2529</RA_OF_ASC_NODE><ARG_OF_PERICENTER>88.7879</ARG_OF_PERICENTER><MEAN_ANOMALY>271.3609</MEAN_ANOMALY></meanElements><tleParameters><EPHEMERIS_TYPE>0</EPHEMERIS_TYPE><CLASSIFICATION_TYPE>U</CLASSIFICATION_TYPE><NORAD_CAT_ID>43255</NORAD_CAT_ID><ELEMENT_SET_NO>999</ELEMENT_SET_NO><REV_AT_EPOCH>33832</REV_AT_EPOCH><BSTAR>.25868E-4</BSTAR><MEAN_MOTION_DOT>.92E-6</MEAN_MOTION_DOT><MEAN_MOTION_DDOT>0</MEAN_MOTION_DDOT></tleParameters></data></segment></body></omm>
<omm id="CCSDS_OMM_VERS" version="2.0">
<header><CREATION_DATE/><ORIGINATOR/></header><body><segment><metadata><OBJECT_NAME>IRIDIUM 142</OBJECT_NAME><OBJECT_ID>2018-030H</OBJECT_ID><CENTER_NAME>EARTH</CENTER_NAME><REF_FRAME>TEME</REF_FRAME><TIME_SYSTEM>UTC</TIME_SYSTEM><MEAN_ELEMENT_THEORY>SGP4</MEAN_ELEMENT_THEORY></metadata><data><meanElements><EPOCH>2024-09-14T13:34:03.053568</EPOCH><MEAN_MOTION>14.34221215</MEAN_MOTION><ECCENTRICITY>.0002702</ECCENTRICITY><INCLINATION>86.4028</INCLINATION><RA_OF_ASC_NODE>198.0903</RA_OF_ASC_NODE><ARG_OF_PERICENTER>92.2878</ARG_OF_PERICENTER><MEAN_ANOMALY>267.8627</MEAN_ANOMALY></meanElements><tleParameters><EPHEMERIS_TYPE>0</EPHEMERIS_TYPE><CLASSIFICATION_TYPE>U</CLASSIFICATION_TYPE><NORAD_CAT_ID>43256</NORAD_CAT_ID><ELEMENT_SET_NO>999</ELEMENT_SET_NO><REV_AT_EPOCH>33831</REV_AT_EPOCH><BSTAR>.45487E-3</BSTAR><MEAN_MOTION_DOT>.1294E-4</MEAN_MOTION_DOT><MEAN_MOTION_DDOT>0</MEAN_MOTION_DDOT></tleParameters></data></segment></body></omm>

</ndm>
